[{"OBJECT_NAME":"OCO 2","OBJECT_ID":"2014-035A","EPOCH":"2026-03-06T20:06:06.526656","MEAN_MOTION":14.57090191,"ECCENTRICITY":0.0001194,"INCLINATION":98.2093,"RA_OF_ASC_NODE":8.7258,"ARG_OF_PERICENTER":91.5554,"MEAN_ANOMALY":268.5781,"EPHEMERIS_TYPE":0,"CLASSIFICATION_TYPE":"U","NORAD_CAT_ID":40059,"ELEMENT_SET_NO":999,"REV_AT_EPOCH":62114,"BSTAR":0.00019349,"MEAN_MOTION_DOT":8.26e-6,"MEAN_MOTION_DDOT":0},{"OBJECT_NAME":"BRITE-PL2 (HEWELIUSZ)","OBJECT_ID":"2014-049B","EPOCH":"2026-03-06T06:11:09.047040","MEAN_MOTION":14.94161298,"ECCENTRICITY":0.00156086,"INCLINATION":97.8984,"RA_OF_ASC_NODE":176.5682,"ARG_OF_PERICENTER":91.8548,"MEAN_ANOMALY":268.4459,"EPHEMERIS_TYPE":0,"CLASSIFICATION_TYPE":"U","NORAD_CAT_ID":40119,"ELEMENT_SET_NO":999,"REV_AT_EPOCH":62607,"BSTAR":0.0003643545,"MEAN_MOTION_DOT":3.85e-5,"MEAN_MOTION_DDOT":0},{"OBJECT_NAME":"MMS 1","OBJECT_ID":"2015-011A","EPOCH":"2026-03-06T22:00:01.999584","MEAN_MOTION":0.28284285,"ECCENTRICITY":0.8417401,"INCLINATION":70.7971,"RA_OF_ASC_NODE":350.193,"ARG_OF_PERICENTER":165.2374,"MEAN_ANOMALY":307.0363,"EPHEMERIS_TYPE":0,"CLASSIFICATION_TYPE":"U","NORAD_CAT_ID":40482,"ELEMENT_SET_NO":999,"REV_AT_EPOCH":134,"BSTAR":0,"MEAN_MOTION_DOT":-1.93e-5,"MEAN_MOTION_DDOT":0},{"OBJECT_NAME":"MMS 2","OBJECT_ID":"2015-011B","EPOCH":"2026-03-06T22:00:01.999584","MEAN_MOTION":0.28284286,"ECCENTRICITY":0.8418132,"INCLINATION":70.7974,"RA_OF_ASC_NODE":350.1951,"ARG_OF_PERICENTER":165.2435,"MEAN_ANOMALY":307.02,"EPHEMERIS_TYPE":0,"CLASSIFICATION_TYPE":"U","NORAD_CAT_ID":40483,"ELEMENT_SET_NO":999,"REV_AT_EPOCH":134,"BSTAR":0,"MEAN_MOTION_DOT":-1.93e-5,"MEAN_MOTION_DDOT":0},{"OBJECT_NAME":"MMS 3","OBJECT_ID":"2015-011C","EPOCH":"2026-03-06T22:00:01.999584","MEAN_MOTION":0.28276142,"ECCENTRICITY":0.8417611,"INCLINATION":70.799,"RA_OF_ASC_NODE":350.1996,"ARG_OF_PERICENTER":165.2342,"MEAN_ANOMALY":307.0442,"EPHEMERIS_TYPE":0,"CLASSIFICATION_TYPE":"U","NORAD_CAT_ID":40484,"ELEMENT_SET_NO":999,"REV_AT_EPOCH":134,"BSTAR":0,"MEAN_MOTION_DOT":-1.931e-5,"MEAN_MOTION_DDOT":0},{"OBJECT_NAME":"MMS 4","OBJECT_ID":"2015-011D","EPOCH":"2026-03-06T22:00:01.999584","MEAN_MOTION":0.28284273,"ECCENTRICITY":0.8416918,"INCLINATION":70.7978,"RA_OF_ASC_NODE":350.1949,"ARG_OF_PERICENTER":165.2449,"MEAN_ANOMALY":307.014,"EPHEMERIS_TYPE":0,"CLASSIFICATION_TYPE":"U","NORAD_CAT_ID":40485,"ELEMENT_SET_NO":999,"REV_AT_EPOCH":134,"BSTAR":0,"MEAN_MOTION_DOT":-1.93e-5,"MEAN_MOTION_DDOT":0},{"OBJECT_NAME":"ASTROSAT","OBJECT_ID":"2015-052A","EPOCH":"2026-03-06T13:26:14.578944","MEAN_MOTION":14.82288976,"ECCENTRICITY":0.00080218,"INCLINATION":5.9957,"RA_OF_ASC_NODE":173.9588,"ARG_OF_PERICENTER":5.0302,"MEAN_ANOMALY":354.9906,"EPHEMERIS_TYPE":0,"CLASSIFICATION_TYPE":"U","NORAD_CAT_ID":40930,"ELEMENT_SET_NO":999,"REV_AT_EPOCH":56457,"BSTAR":0.00023444125,"MEAN_MOTION_DOT":2.59e-5,"MEAN_MOTION_DDOT":0},{"OBJECT_NAME":"DAMPE","OBJECT_ID":"2015-078A","EPOCH":"2026-03-06T20:35:54.776832","MEAN_MOTION":15.30485862,"ECCENTRICITY":0.0013879,"INCLINATION":97.4582,"RA_OF_ASC_NODE":70.8334,"ARG_OF_PERICENTER":80.3372,"MEAN_ANOMALY":279.9436,"EPHEMERIS_TYPE":0,"CLASSIFICATION_TYPE":"U","NORAD_CAT_ID":41173,"ELEMENT_SET_NO":999,"REV_AT_EPOCH":56889,"BSTAR":5.0612e-5,"MEAN_MOTION_DOT":1.417e-5,"MEAN_MOTION_DDOT":0},{"OBJECT_NAME":"PISAT","OBJECT_ID":"2016-059B","EPOCH":"2026-03-06T19:51:54.446400","MEAN_MOTION":14.68765734,"ECCENTRICITY":0.0029316,"INCLINATION":97.8191,"RA_OF_ASC_NODE":70.6936,"ARG_OF_PERICENTER":169.7599,"MEAN_ANOMALY":190.421,"EPHEMERIS_TYPE":0,"CLASSIFICATION_TYPE":"U","NORAD_CAT_ID":41784,"ELEMENT_SET_NO":999,"REV_AT_EPOCH":50471,"BSTAR":0.00027606,"MEAN_MOTION_DOT":1.573e-5,"MEAN_MOTION_DDOT":0},{"OBJECT_NAME":"HXMT (HUIYAN)","OBJECT_ID":"2017-034A","EPOCH":"2026-03-06T21:09:13.262400","MEAN_MOTION":15.17415521,"ECCENTRICITY":0.0032654,"INCLINATION":43.0152,"RA_OF_ASC_NODE":32.2848,"ARG_OF_PERICENTER":218.8316,"MEAN_ANOMALY":141.0185,"EPHEMERIS_TYPE":0,"CLASSIFICATION_TYPE":"U","NORAD_CAT_ID":42758,"ELEMENT_SET_NO":999,"REV_AT_EPOCH":48211,"BSTAR":0.00038737,"MEAN_MOTION_DOT":7.761e-5,"MEAN_MOTION_DDOT":0},{"OBJECT_NAME":"FLYING LAPTOP","OBJECT_ID":"2017-042G","EPOCH":"2026-03-06T20:15:09.288864","MEAN_MOTION":15.00497012,"ECCENTRICITY":0.001891,"INCLINATION":97.4265,"RA_OF_ASC_NODE":225.645,"ARG_OF_PERICENTER":104.6059,"MEAN_ANOMALY":255.7264,"EPHEMERIS_TYPE":0,"CLASSIFICATION_TYPE":"U","NORAD_CAT_ID":42831,"ELEMENT_SET_NO":999,"REV_AT_EPOCH":47110,"BSTAR":0.00045626,"MEAN_MOTION_DOT":5.714e-5,"MEAN_MOTION_DDOT":0},{"OBJECT_NAME":"ZHANGHENG 1-01 (CSES-1)","OBJECT_ID":"2018-015C","EPOCH":"2026-03-06T21:24:38.972736","MEAN_MOTION":15.20956558,"ECCENTRICITY":0.0014832,"INCLINATION":97.6751,"RA_OF_ASC_NODE":229.5717,"ARG_OF_PERICENTER":254.9639,"MEAN_ANOMALY":104.9955,"EPHEMERIS_TYPE":0,"CLASSIFICATION_TYPE":"U","NORAD_CAT_ID":43194,"ELEMENT_SET_NO":999,"REV_AT_EPOCH":44909,"BSTAR":0.00056038,"MEAN_MOTION_DOT":0.00012384,"MEAN_MOTION_DDOT":0},{"OBJECT_NAME":"SALSAT","OBJECT_ID":"2020-068K","EPOCH":"2026-03-06T09:34:37.173504","MEAN_MOTION":15.28102969,"ECCENTRICITY":0.00085035,"INCLINATION":97.8855,"RA_OF_ASC_NODE":62.338,"ARG_OF_PERICENTER":310.6744,"MEAN_ANOMALY":49.3754,"EPHEMERIS_TYPE":0,"CLASSIFICATION_TYPE":"U","NORAD_CAT_ID":46495,"ELEMENT_SET_NO":999,"REV_AT_EPOCH":29965,"BSTAR":0.00041380483,"MEAN_MOTION_DOT":0.00011274,"MEAN_MOTION_DDOT":0},{"OBJECT_NAME":"IXPE","OBJECT_ID":"2021-121A","EPOCH":"2026-03-06T20:00:00.999360","MEAN_MOTION":15.09168139,"ECCENTRICITY":0.00076,"INCLINATION":0.2307,"RA_OF_ASC_NODE":11.113,"ARG_OF_PERICENTER":331.3037,"MEAN_ANOMALY":134.1095,"EPHEMERIS_TYPE":0,"CLASSIFICATION_TYPE":"U","NORAD_CAT_ID":49954,"ELEMENT_SET_NO":999,"REV_AT_EPOCH":536,"BSTAR":0.00084029,"MEAN_MOTION_DOT":0.00014693,"MEAN_MOTION_DDOT":0}]
